[{"OBJECT_NAME":"STARLINK-32018","OBJECT_ID":"2024-117Q","EPOCH":"2026-03-09T06:49:41.991456","MEAN_MOTION":15.30193059,"ECCENTRICITY":0.00011978,"INCLINATION":53.1618,"RA_OF_ASC_NODE":39.0622,"ARG_OF_PERICENTER":97.0561,"MEAN_ANOMALY":263.0576,"EPHEMERIS_TYPE":0,"CLASSIFICATION_TYPE":"U","NORAD_CAT_ID":60105,"ELEMENT_SET_NO":999,"REV_AT_EPOCH":9682,"BSTAR":3.464082e-6,"MEAN_MOTION_DOT":-2.57e-6,"MEAN_MOTION_DDOT":0},{"OBJECT_NAME":"OV1-19","OBJECT_ID":"1969-025C","EPOCH":"2026-03-09T21:47:24.425376","MEAN_MOTION":9.583977,"ECCENTRICITY":0.26774515,"INCLINATION":104.7313,"RA_OF_ASC_NODE":210.85,"ARG_OF_PERICENTER":145.6894,"MEAN_ANOMALY":235.034,"EPHEMERIS_TYPE":0,"CLASSIFICATION_TYPE":"U","NORAD_CAT_ID":3825,"ELEMENT_SET_NO":999,"REV_AT_EPOCH":97573,"BSTAR":0.0005405909,"MEAN_MOTION_DOT":1.098e-5,"MEAN_MOTION_DDOT":0}]
